NORAD_CAT_ID,OBJECT_NAME,OBJECT_TYPE,EPOCH,MEAN_MOTION,ECCENTRICITY,INCLINATION,RA_OF_ASC_NODE,ARG_OF_PERICENTER,MEAN_ANOMALY,BSTAR,MEAN_MOTION_DOT,MEAN_MOTION_DDOT,TLE_LINE0,TLE_LINE1,TLE_LINE2,SEMIMAJOR_AXIS,PERIOD,APOGEE,PERIGEE,DECAYED
55640.0,STARLINK-5069,PAYLOAD,2024-03-16 18:06:16,14.98327051,0.0002826,70.001,207.1914,258.3232,101.761,-2.6807e-05,-4.13e-06,0.0,0 STARLINK-5069,1 55640U 23021N   24076.75436206 -.00000413  00000-0 -26807-4 0  9997,2 55640  70.0010 207.1914 0002826 258.3232 101.7610 14.98327051 60504,6950.202,96.107,574.031,570.103,0.0
55640.0,STARLINK-5069,PAYLOAD,2024-03-17 13:19:53,14.98326005,0.0003092,70.0005,205.1718,267.434,92.6465,3.9814e-06,-4.6e-07,0.0,0 STARLINK-5069,1 55640U 23021N   24077.55548329 -.00000046  00000-0  39814-5 0  9990,2 55640  70.0005 205.1718 0003092 267.4340  92.6465 14.98326005 60622,6950.205,96.107,574.219,569.921,0.0
55640.0,STARLINK-5069,PAYLOAD,2024-03-17 18:08:17,14.98328119,0.0003065,70.0008,204.6672,267.3321,92.7487,2.693e-05,2.28e-06,0.0,0 STARLINK-5069,1 55640U 23021N   24077.75576167  .00000228  00000-0  26930-4 0  9998,2 55640  70.0008 204.6672 0003065 267.3321  92.7487 14.98328119 60359,6950.199,96.107,574.194,569.933,0.0
55640.0,STARLINK-5069,PAYLOAD,2024-03-18 11:45:46,14.98331066,0.0003078,70.0008,202.8156,267.9363,92.1444,4.4585e-05,4.39e-06,0.0,0 STARLINK-5069,1 55640U 23021N   24078.49011931  .00000439  00000-0  44585-4 0  9993,2 55640  70.0008 202.8156 0003078 267.9363  92.1444 14.98331066 60769,6950.19,96.107,574.194,569.915,0.0
55640.0,STARLINK-5069,PAYLOAD,2024-03-19 11:47:46,14.98335006,0.0003095,70.0009,200.2909,267.9066,92.1738,6.0824e-05,6.33e-06,0.0,0 STARLINK-5069,1 55640U 23021N   24079.49151402  .00000633  00000-0  60824-4 0  9992,2 55640  70.0009 200.2909 0003095 267.9066  92.1738 14.98335006 60918,6950.177,96.107,574.193,569.891,0.0
55640.0,STARLINK-5069,PAYLOAD,2024-03-19 18:12:18,14.98342534,0.0003159,70.0007,199.6172,269.4639,90.6158,0.00013229,1.486e-05,0.0,0 STARLINK-5069,1 55640U 23021N   24079.75854587  .00001486  00000-0  13229-3 0  9998,2 55640  70.0007 199.6172 0003159 269.4639  90.6158 14.98342534 60657,6950.154,96.106,574.215,569.824,0.0
55640.0,STARLINK-5069,PAYLOAD,2024-03-20 10:13:40,14.98324602,0.0003117,70.0005,197.934,268.3078,91.7724,-0.00011402,-1.453e-05,0.0,0 STARLINK-5069,1 55640U 23021N   24080.42616404 -.00001453  00000-0 -11402-3 0  9995,2 55640  70.0005 197.9340 0003117 268.3078  91.7724 14.98324602 60750,6950.21,96.107,574.241,569.908,0.0
55640.0,STARLINK-5069,PAYLOAD,2024-03-20 11:49:48,14.98323751,0.0003075,70.0007,197.766,273.6996,86.3812,-0.00011859,-1.507e-05,0.0,0 STARLINK-5069,1 55640U 23021N   24080.49292535 -.00001507  00000-0 -11859-3 0  9993,2 55640  70.0007 197.7660 0003075 273.6996  86.3812 14.98323751 61063,6950.212,96.107,574.214,569.94,0.0
55640.0,STARLINK-5069,PAYLOAD,2024-03-20 18:14:20,14.98328581,0.0003073,70.0007,197.0927,267.8948,92.1859,-6.0193e-05,-8.11e-06,0.0,0 STARLINK-5069,1 55640U 23021N   24080.75996064 -.00000811  00000-0 -60193-4 0  9993,2 55640  70.0007 197.0927 0003073 267.8948  92.1859 14.98328581 61109,6950.197,96.107,574.198,569.926,0.0
55640.0,STARLINK-5069,PAYLOAD,2024-03-21 00:38:52,14.98330848,0.0003077,70.0006,196.4193,268.6214,91.4593,-9.378e-05,-1.212e-05,0.0,0 STARLINK-5069,1 55640U 23021N   24081.02700077 -.00001212  00000-0 -93780-4 0  9995,2 55640  70.0006 196.4193 0003077 268.6214  91.4593 14.98330848 60841,6950.19,96.107,574.194,569.917,0.0
55640.0,STARLINK-5069,PAYLOAD,2024-03-21 13:27:57,14.98334514,0.0002978,70.0008,195.0733,266.6571,93.4247,-3.2192e-05,-4.77e-06,0.0,0 STARLINK-5069,1 55640U 23021N   24081.56107643 -.00000477  00000-0 -32192-4 0  9996,2 55640  70.0008 195.0733 0002978 266.6571  93.4247 14.98334514 61226,6950.179,96.107,574.114,569.974,0.0
55640.0,STARLINK-5069,PAYLOAD,2024-03-21 16:40:12,14.98338727,0.0002868,70.0009,194.7364,268.5915,91.4915,1.6469e-05,1.04e-06,0.0,0 STARLINK-5069,1 55640U 23021N   24081.69459217  .00000104  00000-0  16469-4 0  9991,2 55640  70.0009 194.7364 0002868 268.5915  91.4915 14.98338727 60942,6950.166,96.106,574.024,570.038,0.0
55640.0,STARLINK-5069,PAYLOAD,2024-03-22 11:53:47,14.98348334,0.0002928,70.0008,192.7168,270.1414,89.9409,0.00027283,3.165e-05,0.0,0 STARLINK-5069,1 55640U 23021N   24082.49569158  .00003165  00000-0  27283-3 0  9991,2 55640  70.0008 192.7168 0002928 270.1414  89.9409 14.98348334 61060,6950.136,96.106,574.036,569.966,0.0
55640.0,STARLINK-5069,PAYLOAD,2024-03-22 13:29:55,14.98347513,0.0003199,70.0003,192.547,272.7462,87.3331,0.0002908,3.38e-05,0.0,0 STARLINK-5069,1 55640U 23021N   24082.56245068  .00003380  00000-0  29080-3 0  9996,2 55640  70.0003 192.5470 0003199 272.7462  87.3331 14.98347513 61379,6950.139,96.106,574.227,569.78,0.0
55640.0,STARLINK-5069,PAYLOAD,2024-03-22 16:42:11,14.98353314,0.0002924,70.0009,192.2102,266.0871,93.9954,0.0003747,4.383e-05,0.0,0 STARLINK-5069,1 55640U 23021N   24082.69596249  .00004383  00000-0  37470-3 0  9996,2 55640  70.0009 192.2102 0002924 266.0871  93.9954 14.98353314 61098,6950.121,96.106,574.018,569.954,0.0
55640.0,STARLINK-5069,PAYLOAD,2024-03-23 13:32:00,14.98306256,0.0002507,70.0012,190.0233,267.2191,92.8681,-0.00034278,-4.178e-05,0.0,0 STARLINK-5069,1 55640U 23021N   24083.56389436 -.00004178  00000-0 -34278-3 0  9998,2 55640  70.0012 190.0233 0002507 267.2191  92.8681 14.98306256 61221,6950.266,96.109,573.874,570.389,0.0
55640.0,STARLINK-5069,PAYLOAD,2024-03-23 16:44:16,14.98310602,0.0002317,70.0017,189.6878,260.9982,99.0915,-0.00028021,-3.433e-05,0.0,0 STARLINK-5069,1 55640U 23021N   24083.69741095 -.00003433  00000-0 -28021-3 0  9997,2 55640  70.0017 189.6878 0002317 260.9982  99.0915 14.98310602 61243,6950.253,96.108,573.728,570.508,0.0
55640.0,STARLINK-5069,PAYLOAD,2024-03-24 05:33:19,14.98331546,0.0003376,69.9996,188.3375,271.4999,88.5774,-0.00027835,-3.413e-05,0.0,0 STARLINK-5069,1 55640U 23021N   24084.23147690 -.00003413  00000-0 -27835-3 0  9999,2 55640  69.9996 188.3375 0003376 271.4999  88.5774 14.98331546 61320,6950.188,96.107,574.399,569.707,0.0
55640.0,STARLINK-5069,PAYLOAD,2024-03-24 13:33:58,14.98345988,0.000223,70.0033,187.5022,231.0686,129.0275,-3.7632e-05,-5.42e-06,0.0,0 STARLINK-5069,1 55640U 23021N   24084.56525965 -.00000542  00000-0 -37632-4 0  9997,2 55640  70.0033 187.5022 0002230 231.0686 129.0275 14.98345988 61375,6950.143,96.106,573.558,570.459,0.0
55640.0,STARLINK-5069,PAYLOAD,2024-03-24 16:46:13,14.98354778,0.0002322,70.002,187.1636,252.8374,107.2531,4.1593e-05,4.04e-06,0.0,0 STARLINK-5069,1 55640U 23021N   24084.69877066  .00000404  00000-0  41593-4 0  9999,2 55640  70.0020 187.1636 0002322 252.8374 107.2531 14.98354778 61397,6950.116,96.105,573.595,570.367,0.0
55640.0,STARLINK-5069,PAYLOAD,2024-03-25 05:35:20,14.9831046,0.0001919,70.0021,185.8188,264.6529,95.4411,0.00022731,2.619e-05,0.0,0 STARLINK-5069,1 55640U 23021N   24085.23287378  .00002619  00000-0  22731-3 0  9993,2 55640  70.0021 185.8188 0001919 264.6529  95.4411 14.98310460 61473,6950.253,96.108,573.452,570.785,0.0
55640.0,STARLINK-5069,PAYLOAD,2024-03-25 16:48:17,14.98310999,0.0002345,70.0015,184.6388,263.2384,96.8508,0.00020178,2.314e-05,0.0,0 STARLINK-5069,1 55640U 23021N   24085.70019986  .00002314  00000-0  20178-3 0  9998,2 55640  70.0015 184.6388 0002345 263.2384  96.8508 14.98310999 61843,6950.252,96.108,573.746,570.487,0.0
55640.0,STARLINK-5069,PAYLOAD,2024-03-26 13:38:03,14.98319856,0.0002396,70.0022,182.4518,258.4212,101.6678,-0.00020675,-2.558e-05,0.0,0 STARLINK-5069,1 55640U 23021N   24086.56809200 -.00002558  00000-0 -20675-3 0  9993,2 55640  70.0022 182.4518 0002396 258.4212 101.6678 14.98319856 61679,6950.224,96.108,573.755,570.424,0.0
55640.0,STARLINK-5069,PAYLOAD,2024-03-26 16:50:18,14.98332239,0.0002868,70.001,182.1102,272.8431,87.24,-0.00024035,-2.96e-05,0.0,0 STARLINK-5069,1 55640U 23021N   24086.70160505 -.00002960  00000-0 -24035-3 0  9998,2 55640  70.0010 182.1102 0002868 272.8431  87.2400 14.98332239 61693,6950.186,96.107,574.044,570.058,0.0
55640.0,STARLINK-5069,PAYLOAD,2024-03-26 23:14:50,14.98340964,0.000309,70.0004,181.4366,274.0663,86.0143,-0.00017684,-2.203e-05,0.0,0 STARLINK-5069,1 55640U 23021N   24086.96863625 -.00002203  00000-0 -17684-3 0  9991,2 55640  70.0004 181.4366 0003090 274.0663  86.0143 14.98340964 61739,6950.159,96.106,574.172,569.876,0.0
55640.0,STARLINK-5069,PAYLOAD,2024-03-27 13:40:02,14.98336913,0.0002704,70.0011,179.9253,268.291,91.7939,0.00022136,2.55e-05,0.0,0 STARLINK-5069,1 55640U 23021N   24087.56947017  .00002550  00000-0  22136-3 0  9997,2 55640  70.0011 179.9253 0002704 268.2910  91.7939 14.98336913 62124,6950.172,96.107,573.916,570.157,0.0
55640.0,STARLINK-5069,PAYLOAD,2024-03-27 15:16:10,14.98338243,0.0002686,70.0012,179.757,268.6837,91.4015,0.0002324,2.682e-05,0.0,0 STARLINK-5069,1 55640U 23021N   24087.63622873  .00002682  00000-0  23240-3 0  9998,2 55640  70.0012 179.7570 0002686 268.6837  91.4015 14.98338243 62137,6950.167,96.106,573.899,570.166,0.0
55640.0,STARLINK-5069,PAYLOAD,2024-03-28 05:41:24,14.98316123,0.0003016,70.0007,178.2402,266.3913,93.6901,8.3987e-05,9.09e-06,0.0,0 STARLINK-5069,1 55640U 23021N   24088.23708417  .00000909  00000-0  83987-4 0  9999,2 55640  70.0007 178.2402 0003016 266.3913  93.6901 14.98316123 61924,6950.236,96.108,574.197,570.005,0.0
55640.0,STARLINK-5069,PAYLOAD,2024-03-28 12:05:55,14.9832425,0.0002835,70.0006,177.5666,264.4582,95.6254,0.00018814,2.152e-05,0.0,0 STARLINK-5069,1 55640U 23021N   24088.50411774  .00002152  00000-0  18814-3 0  9994,2 55640  70.0006 177.5666 0002835 264.4582  95.6254 14.98324250 61963,6950.211,96.107,574.046,570.105,0.0
55640.0,STARLINK-5069,PAYLOAD,2024-03-29 12:07:56,14.98340345,0.000297,70.0006,175.0426,267.563,92.5189,-0.00010154,-1.305e-05,0.0,0 STARLINK-5069,1 55640U 23021N   24089.50551277 -.00001305  00000-0 -10154-3 0  9998,2 55640  70.0006 175.0426 0002970 267.5630  92.5189 14.98340345 62112,6950.161,96.106,574.09,569.962,0.0
